{
"type": "FeatureCollection",
"name": "pilotBrennerExtentMerge.geojson.tmp",
"crs": { "type": "name", "properties": { "name": "urn:ogc:def:crs:OGC:1.3:CRS84" } },
"xy_coordinate_resolution": 1e-06,
"features": [
{ "type": "Feature", "properties": { }, "geometry": { "type": "Polygon", "coordinates": [ [ [ 11.536045, 46.978985 ], [ 11.535525, 46.978641 ], [ 11.535192, 46.978423 ], [ 11.534631, 46.978102 ], [ 11.534086, 46.977813 ], [ 11.533803, 46.977666 ], [ 11.533317, 46.977425 ], [ 11.532539, 46.977042 ], [ 11.531677, 46.976634 ], [ 11.531201, 46.97637 ], [ 11.530908, 46.976241 ], [ 11.530306, 46.976007 ], [ 11.529905, 46.975831 ], [ 11.529302, 46.975557 ], [ 11.528699, 46.975259 ], [ 11.528174, 46.97501 ], [ 11.52788, 46.974864 ], [ 11.527378, 46.97456 ], [ 11.527068, 46.974319 ], [ 11.526682, 46.974031 ], [ 11.526206, 46.973569 ], [ 11.525778, 46.973142 ], [ 11.525567, 46.972966 ], [ 11.52515, 46.972642 ], [ 11.524554, 46.972129 ], [ 11.523893, 46.971608 ], [ 11.523465, 46.971253 ], [ 11.523239, 46.971065 ], [ 11.522862, 46.970709 ], [ 11.522166, 46.970094 ], [ 11.522172, 46.969486 ], [ 11.522121, 46.969092 ], [ 11.52216, 46.968848 ], [ 11.5221, 46.968404 ], [ 11.522098, 46.967792 ], [ 11.521763, 46.967435 ], [ 11.521485, 46.967121 ], [ 11.521167, 46.966782 ], [ 11.521007, 46.966587 ], [ 11.520689, 46.96618 ], [ 11.520318, 46.965684 ], [ 11.5201, 46.96532 ], [ 11.519849, 46.965033 ], [ 11.519197, 46.964724 ], [ 11.518961, 46.96458 ], [ 11.518452, 46.964344 ], [ 11.517976, 46.964116 ], [ 11.517482, 46.963898 ], [ 11.517023, 46.963696 ], [ 11.516746, 46.963536 ], [ 11.516336, 46.963284 ], [ 11.516102, 46.963109 ], [ 11.515691, 46.96274 ], [ 11.515206, 46.9624 ], [ 11.515004, 46.961981 ], [ 11.514819, 46.96154 ], [ 11.514632, 46.961098 ], [ 11.514589, 46.96091 ], [ 11.514187, 46.960496 ], [ 11.51381, 46.96005 ], [ 11.513615, 46.959627 ], [ 11.513431, 46.959275 ], [ 11.513146, 46.958899 ], [ 11.512953, 46.958674 ], [ 11.512335, 46.958548 ], [ 11.511825, 46.958451 ], [ 11.511157, 46.958295 ], [ 11.510463, 46.958144 ], [ 11.509871, 46.957986 ], [ 11.509563, 46.957889 ], [ 11.508978, 46.957717 ], [ 11.508585, 46.9576 ], [ 11.508142, 46.957425 ], [ 11.507698, 46.957192 ], [ 11.507313, 46.956975 ], [ 11.506754, 46.956745 ], [ 11.506503, 46.956584 ], [ 11.506043, 46.956279 ], [ 11.505859, 46.956166 ], [ 11.505584, 46.955987 ], [ 11.505314, 46.955611 ], [ 11.504945, 46.955155 ], [ 11.504651, 46.95477 ], [ 11.504542, 46.954552 ], [ 11.504365, 46.954147 ], [ 11.504247, 46.953965 ], [ 11.504405, 46.953534 ], [ 11.505346, 46.953135 ], [ 11.505861, 46.95289 ], [ 11.506111, 46.952767 ], [ 11.506669, 46.952521 ], [ 11.507118, 46.952313 ], [ 11.507618, 46.952154 ], [ 11.507925, 46.951724 ], [ 11.507924, 46.951585 ], [ 11.507905, 46.95114 ], [ 11.507913, 46.950928 ], [ 11.507886, 46.950456 ], [ 11.507851, 46.950083 ], [ 11.507782, 46.949734 ], [ 11.507695, 46.949119 ], [ 11.507678, 46.948683 ], [ 11.507652, 46.948436 ], [ 11.507682, 46.947999 ], [ 11.507757, 46.947791 ], [ 11.507764, 46.947574 ], [ 11.507755, 46.947278 ], [ 11.507588, 46.947029 ], [ 11.507417, 46.946691 ], [ 11.507085, 46.946334 ], [ 11.506891, 46.946131 ], [ 11.506481, 46.945879 ], [ 11.506289, 46.945739 ], [ 11.505554, 46.945535 ], [ 11.505195, 46.945493 ], [ 11.504594, 46.945394 ], [ 11.503943, 46.945305 ], [ 11.503635, 46.945204 ], [ 11.502966, 46.945083 ], [ 11.50274, 46.94485 ], [ 11.502505, 46.944625 ], [ 11.502372, 46.944327 ], [ 11.502226, 46.943862 ], [ 11.502234, 46.943421 ], [ 11.5022, 46.943174 ], [ 11.502123, 46.942766 ], [ 11.502105, 46.942627 ], [ 11.502129, 46.942478 ], [ 11.502177, 46.942095 ], [ 11.502242, 46.941693 ], [ 11.502308, 46.941408 ], [ 11.502431, 46.940942 ], [ 11.502522, 46.940755 ], [ 11.502795, 46.94034 ], [ 11.502944, 46.939945 ], [ 11.50296, 46.93967 ], [ 11.502941, 46.939347 ], [ 11.502808, 46.939017 ], [ 11.502597, 46.938589 ], [ 11.502413, 46.938436 ], [ 11.502268, 46.938286 ], [ 11.501969, 46.938216 ], [ 11.501351, 46.938058 ], [ 11.500667, 46.937943 ], [ 11.500166, 46.937864 ], [ 11.499407, 46.937709 ], [ 11.498773, 46.937588 ], [ 11.49848, 46.93755 ], [ 11.497822, 46.937537 ], [ 11.497239, 46.937509 ], [ 11.496579, 46.937479 ], [ 11.495845, 46.937436 ], [ 11.495202, 46.937423 ], [ 11.494877, 46.93743 ], [ 11.494161, 46.937347 ], [ 11.493617, 46.937305 ], [ 11.492975, 46.937215 ], [ 11.492283, 46.937176 ], [ 11.491616, 46.937096 ], [ 11.491258, 46.937082 ], [ 11.490606, 46.937033 ], [ 11.49004, 46.936973 ], [ 11.489631, 46.936942 ], [ 11.489163, 46.936893 ], [ 11.488686, 46.9368 ], [ 11.488044, 46.936693 ], [ 11.487761, 46.936685 ], [ 11.487043, 46.936651 ], [ 11.486352, 46.936631 ], [ 11.485917, 46.936653 ], [ 11.485452, 46.936682 ], [ 11.485051, 46.936717 ], [ 11.484427, 46.936677 ], [ 11.484084, 46.936653 ], [ 11.483449, 46.936626 ], [ 11.483007, 46.936618 ], [ 11.482673, 46.93662 ], [ 11.482256, 46.936611 ], [ 11.481898, 46.936646 ], [ 11.481432, 46.936674 ], [ 11.480814, 46.936701 ], [ 11.48049, 46.93674 ], [ 11.479872, 46.936767 ], [ 11.478756, 46.936962 ], [ 11.477897, 46.937025 ], [ 11.477273, 46.937138 ], [ 11.476947, 46.93714 ], [ 11.47629, 46.937146 ], [ 11.475604, 46.93717 ], [ 11.475222, 46.937169 ], [ 11.474787, 46.937115 ], [ 11.474362, 46.937061 ], [ 11.474062, 46.936978 ], [ 11.473787, 46.936858 ], [ 11.473544, 46.936701 ], [ 11.473026, 46.936415 ], [ 11.472516, 46.936093 ], [ 11.472056, 46.935833 ], [ 11.471554, 46.93552 ], [ 11.471103, 46.93521 ], [ 11.470843, 46.935054 ], [ 11.470335, 46.934746 ], [ 11.470034, 46.934532 ], [ 11.469574, 46.934281 ], [ 11.468704, 46.933975 ], [ 11.468062, 46.93389 ], [ 11.467754, 46.933843 ], [ 11.467128, 46.933748 ], [ 11.466879, 46.933731 ], [ 11.46621, 46.93371 ], [ 11.465636, 46.933691 ], [ 11.465151, 46.933552 ], [ 11.4645, 46.9334 ], [ 11.464208, 46.933339 ], [ 11.463615, 46.933239 ], [ 11.462873, 46.933089 ], [ 11.462339, 46.933087 ], [ 11.461646, 46.933061 ], [ 11.461022, 46.933065 ], [ 11.460663, 46.933096 ], [ 11.459979, 46.933092 ], [ 11.459529, 46.933084 ], [ 11.459129, 46.933052 ], [ 11.458612, 46.933027 ], [ 11.458012, 46.933049 ], [ 11.457562, 46.933014 ], [ 11.457333, 46.932848 ], [ 11.457263, 46.932804 ], [ 11.457095, 46.932704 ], [ 11.456947, 46.932617 ], [ 11.456843, 46.93257 ], [ 11.456754, 46.932527 ], [ 11.456615, 46.932449 ], [ 11.456445, 46.932363 ], [ 11.45627, 46.932277 ], [ 11.456122, 46.932199 ], [ 11.455954, 46.932117 ], [ 11.45579, 46.93203 ], [ 11.4557, 46.931983 ], [ 11.455529, 46.931901 ], [ 11.455376, 46.931823 ], [ 11.455217, 46.931723 ], [ 11.455121, 46.931712 ], [ 11.455015, 46.931714 ], [ 11.454923, 46.931698 ], [ 11.454791, 46.931615 ], [ 11.454593, 46.931593 ], [ 11.454508, 46.931594 ], [ 11.454421, 46.93156 ], [ 11.454333, 46.931513 ], [ 11.454264, 46.931469 ], [ 11.454114, 46.931405 ], [ 11.454024, 46.931353 ], [ 11.453846, 46.931271 ], [ 11.453769, 46.931241 ], [ 11.453677, 46.931189 ], [ 11.453536, 46.931116 ], [ 11.453487, 46.931166 ], [ 11.45343, 46.931235 ], [ 11.453371, 46.931286 ], [ 11.453331, 46.93135 ], [ 11.453272, 46.931414 ], [ 11.453204, 46.931478 ], [ 11.453132, 46.93152 ], [ 11.453062, 46.93158 ], [ 11.452994, 46.931622 ], [ 11.452855, 46.931733 ], [ 11.452715, 46.931813 ], [ 11.452639, 46.931877 ], [ 11.452576, 46.931933 ], [ 11.452498, 46.931979 ], [ 11.452336, 46.932086 ], [ 11.452187, 46.932184 ], [ 11.452026, 46.932278 ], [ 11.451822, 46.932421 ], [ 11.451657, 46.932524 ], [ 11.451604, 46.932579 ], [ 11.451547, 46.93263 ], [ 11.451396, 46.932719 ], [ 11.451228, 46.932835 ], [ 11.451145, 46.932827 ], [ 11.450965, 46.932786 ], [ 11.450848, 46.932762 ], [ 11.450646, 46.932703 ], [ 11.450407, 46.932645 ], [ 11.450331, 46.932737 ], [ 11.45022, 46.932915 ], [ 11.450151, 46.933065 ], [ 11.450064, 46.933188 ], [ 11.449978, 46.933158 ], [ 11.449885, 46.933142 ], [ 11.44978, 46.933109 ], [ 11.449696, 46.933097 ], [ 11.449613, 46.933103 ], [ 11.449499, 46.933128 ], [ 11.449379, 46.933153 ], [ 11.449206, 46.933166 ], [ 11.449173, 46.933144 ], [ 11.449152, 46.933028 ], [ 11.449142, 46.932938 ], [ 11.44912, 46.932848 ], [ 11.449064, 46.932786 ], [ 11.44904, 46.932751 ], [ 11.44907, 46.932692 ], [ 11.449108, 46.93266 ], [ 11.449082, 46.932593 ], [ 11.449012, 46.932594 ], [ 11.44889, 46.93261 ], [ 11.448693, 46.93265 ], [ 11.448508, 46.932686 ], [ 11.448295, 46.932722 ], [ 11.448087, 46.932758 ], [ 11.447854, 46.93279 ], [ 11.447608, 46.932827 ], [ 11.447188, 46.932912 ], [ 11.446884, 46.932955 ], [ 11.446813, 46.933019 ], [ 11.446768, 46.933056 ], [ 11.446676, 46.933121 ], [ 11.446597, 46.933159 ], [ 11.44651, 46.933179 ], [ 11.446429, 46.933189 ], [ 11.446322, 46.933192 ], [ 11.446219, 46.933185 ], [ 11.446103, 46.933187 ], [ 11.445989, 46.93319 ], [ 11.4459, 46.933192 ], [ 11.445829, 46.933229 ], [ 11.445776, 46.933271 ], [ 11.445741, 46.933326 ], [ 11.445703, 46.933362 ], [ 11.445689, 46.933399 ], [ 11.44568, 46.933453 ], [ 11.445671, 46.933521 ], [ 11.445688, 46.933583 ], [ 11.445678, 46.933646 ], [ 11.445646, 46.933697 ], [ 11.445577, 46.93377 ], [ 11.445465, 46.933849 ], [ 11.445416, 46.933922 ], [ 11.445338, 46.933982 ], [ 11.445275, 46.934037 ], [ 11.445145, 46.934148 ], [ 11.445085, 46.934203 ], [ 11.445004, 46.934205 ], [ 11.444869, 46.934222 ], [ 11.444679, 46.93423 ], [ 11.444568, 46.934246 ], [ 11.444354, 46.934264 ], [ 11.444173, 46.934277 ], [ 11.44405, 46.934275 ], [ 11.443937, 46.934287 ], [ 11.443756, 46.934308 ], [ 11.443508, 46.934341 ], [ 11.443392, 46.934348 ], [ 11.443262, 46.934359 ], [ 11.44316, 46.93438 ], [ 11.44303, 46.934409 ], [ 11.44286, 46.934445 ], [ 11.442752, 46.934465 ], [ 11.442693, 46.934511 ], [ 11.442589, 46.934549 ], [ 11.442474, 46.93448 ], [ 11.442395, 46.934432 ], [ 11.442333, 46.934397 ], [ 11.44223, 46.934327 ], [ 11.442145, 46.93428 ], [ 11.442069, 46.934236 ], [ 11.441997, 46.934179 ], [ 11.44192, 46.934127 ], [ 11.441782, 46.934036 ], [ 11.441649, 46.933957 ], [ 11.44157, 46.93391 ], [ 11.441488, 46.933844 ], [ 11.441407, 46.933783 ], [ 11.44133, 46.933739 ], [ 11.441215, 46.933656 ], [ 11.44111, 46.933591 ], [ 11.440971, 46.93349 ], [ 11.44082, 46.93339 ], [ 11.440685, 46.933289 ], [ 11.440518, 46.933208 ], [ 11.440369, 46.93331 ], [ 11.440288, 46.933356 ], [ 11.440212, 46.933403 ], [ 11.440042, 46.93351 ], [ 11.439885, 46.933608 ], [ 11.439721, 46.933697 ], [ 11.439583, 46.93379 ], [ 11.439508, 46.933828 ], [ 11.439322, 46.933926 ], [ 11.439188, 46.934005 ], [ 11.439105, 46.934061 ], [ 11.439017, 46.934104 ], [ 11.438947, 46.934154 ], [ 11.438818, 46.934265 ], [ 11.438714, 46.934371 ], [ 11.438597, 46.934486 ], [ 11.438474, 46.934597 ], [ 11.438369, 46.93472 ], [ 11.438253, 46.934831 ], [ 11.438123, 46.93495 ], [ 11.438014, 46.93507 ], [ 11.437924, 46.935108 ], [ 11.437844, 46.935154 ], [ 11.437679, 46.935225 ], [ 11.437573, 46.935277 ], [ 11.437393, 46.935358 ], [ 11.437262, 46.935428 ], [ 11.437146, 46.935457 ], [ 11.436966, 46.935502 ], [ 11.436768, 46.935546 ], [ 11.436596, 46.935595 ], [ 11.436486, 46.935593 ], [ 11.436294, 46.935601 ], [ 11.436177, 46.935568 ], [ 11.436048, 46.935692 ], [ 11.435882, 46.935835 ], [ 11.435751, 46.935968 ], [ 11.435672, 46.935912 ], [ 11.435581, 46.93586 ], [ 11.435427, 46.935759 ], [ 11.4353, 46.935659 ], [ 11.435214, 46.935687 ], [ 11.435117, 46.935734 ], [ 11.434968, 46.935819 ], [ 11.434808, 46.935917 ], [ 11.434666, 46.936019 ], [ 11.434529, 46.936093 ], [ 11.434423, 46.936123 ], [ 11.434349, 46.93616 ], [ 11.434186, 46.936249 ], [ 11.434033, 46.936324 ], [ 11.43388, 46.936418 ], [ 11.433779, 46.936469 ], [ 11.433645, 46.93654 ], [ 11.43359, 46.936599 ], [ 11.433459, 46.93671 ], [ 11.433395, 46.936739 ], [ 11.433304, 46.936745 ], [ 11.433206, 46.936765 ], [ 11.433107, 46.936767 ], [ 11.43302, 46.936778 ], [ 11.432918, 46.936785 ], [ 11.432791, 46.936787 ], [ 11.432691, 46.936776 ], [ 11.432509, 46.936757 ], [ 11.432391, 46.936746 ], [ 11.43218, 46.936724 ], [ 11.432059, 46.936713 ], [ 11.431982, 46.936697 ], [ 11.431894, 46.936658 ], [ 11.431706, 46.936585 ], [ 11.431546, 46.936512 ], [ 11.431363, 46.936426 ], [ 11.431218, 46.936371 ], [ 11.431028, 46.93628 ], [ 11.43085, 46.936212 ], [ 11.430669, 46.936144 ], [ 11.430579, 46.936096 ], [ 11.430482, 46.936049 ], [ 11.430341, 46.935989 ], [ 11.430224, 46.935937 ], [ 11.43009, 46.935882 ], [ 11.429973, 46.935835 ], [ 11.429798, 46.935762 ], [ 11.429712, 46.935818 ], [ 11.429578, 46.935897 ], [ 11.429477, 46.93594 ], [ 11.429313, 46.93602 ], [ 11.429241, 46.936075 ], [ 11.429155, 46.936109 ], [ 11.42905, 46.936178 ], [ 11.428901, 46.936267 ], [ 11.428744, 46.936338 ], [ 11.428593, 46.936418 ], [ 11.428494, 46.936469 ], [ 11.428336, 46.936549 ], [ 11.428215, 46.936619 ], [ 11.42799, 46.936741 ], [ 11.42784, 46.936821 ], [ 11.427706, 46.936706 ], [ 11.427582, 46.936601 ], [ 11.427323, 46.936157 ], [ 11.427132, 46.93617 ], [ 11.426467, 46.936422 ], [ 11.425949, 46.936487 ], [ 11.425309, 46.936586 ], [ 11.424665, 46.936532 ], [ 11.424014, 46.93647 ], [ 11.423672, 46.93645 ], [ 11.423397, 46.936496 ], [ 11.423056, 46.936607 ], [ 11.42264, 46.936701 ], [ 11.421983, 46.936972 ], [ 11.421667, 46.937109 ], [ 11.421318, 46.937251 ], [ 11.421001, 46.937334 ], [ 11.42076, 46.937376 ], [ 11.420459, 46.93726 ], [ 11.419931, 46.937056 ], [ 11.419554, 46.936789 ], [ 11.419217, 46.936526 ], [ 11.418941, 46.936442 ], [ 11.418507, 46.936366 ], [ 11.418265, 46.936393 ], [ 11.417632, 46.936447 ], [ 11.417323, 46.93649 ], [ 11.416631, 46.936585 ], [ 11.415883, 46.936808 ], [ 11.415135, 46.937067 ], [ 11.414867, 46.937086 ], [ 11.414235, 46.937221 ], [ 11.413927, 46.937263 ], [ 11.413292, 46.937232 ], [ 11.412757, 46.93714 ], [ 11.412181, 46.936981 ], [ 11.411428, 46.936803 ], [ 11.410742, 46.936633 ], [ 11.410416, 46.936577 ], [ 11.40979, 46.936446 ], [ 11.409036, 46.936179 ], [ 11.408592, 46.935958 ], [ 11.408164, 46.935747 ], [ 11.407612, 46.935475 ], [ 11.407385, 46.935349 ], [ 11.407101, 46.935184 ], [ 11.406866, 46.935036 ], [ 11.406688, 46.934878 ], [ 11.406386, 46.934466 ], [ 11.406173, 46.93416 ], [ 11.406029, 46.933839 ], [ 11.405852, 46.933681 ], [ 11.405527, 46.933665 ], [ 11.405193, 46.933749 ], [ 11.404493, 46.93384 ], [ 11.404078, 46.934114 ], [ 11.403574, 46.934512 ], [ 11.403284, 46.934833 ], [ 11.402922, 46.935205 ], [ 11.402706, 46.935371 ], [ 11.402012, 46.935264 ], [ 11.401744, 46.935229 ], [ 11.401169, 46.935156 ], [ 11.400617, 46.935127 ], [ 11.400125, 46.935106 ], [ 11.399416, 46.93508 ], [ 11.399123, 46.935064 ], [ 11.398372, 46.935017 ], [ 11.397712, 46.934895 ], [ 11.397112, 46.934796 ], [ 11.396576, 46.934685 ], [ 11.395941, 46.9346 ], [ 11.395582, 46.93458 ], [ 11.394789, 46.934502 ], [ 11.394177, 46.934196 ], [ 11.393627, 46.934126 ], [ 11.393144, 46.934208 ], [ 11.392493, 46.934276 ], [ 11.392176, 46.934296 ], [ 11.391739, 46.933932 ], [ 11.391428, 46.933619 ], [ 11.391216, 46.933385 ], [ 11.390702, 46.9334 ], [ 11.390242, 46.933441 ], [ 11.38994, 46.93333 ], [ 11.389706, 46.933182 ], [ 11.389446, 46.93303 ], [ 11.389068, 46.932687 ], [ 11.388866, 46.932448 ], [ 11.38867, 46.932029 ], [ 11.388493, 46.93175 ], [ 11.388282, 46.931439 ], [ 11.388154, 46.931212 ], [ 11.387986, 46.931063 ], [ 11.387742, 46.930879 ], [ 11.38729, 46.930483 ], [ 11.386853, 46.930254 ], [ 11.38625, 46.929942 ], [ 11.385764, 46.929678 ], [ 11.385319, 46.929354 ], [ 11.38506, 46.929243 ], [ 11.384648, 46.92895 ], [ 11.384228, 46.928662 ], [ 11.384084, 46.928381 ], [ 11.38389, 46.92816 ], [ 11.383455, 46.927845 ], [ 11.382935, 46.927505 ], [ 11.382783, 46.92736 ], [ 11.382305, 46.927046 ], [ 11.381761, 46.92667 ], [ 11.381175, 46.926525 ], [ 11.380614, 46.926339 ], [ 11.379955, 46.926276 ], [ 11.379671, 46.926255 ], [ 11.378978, 46.926247 ], [ 11.378187, 46.926227 ], [ 11.377604, 46.926352 ], [ 11.377347, 46.926411 ], [ 11.377021, 46.926413 ], [ 11.376352, 46.926283 ], [ 11.376051, 46.926226 ], [ 11.375409, 46.92619 ], [ 11.374883, 46.926228 ], [ 11.374308, 46.926191 ], [ 11.373754, 46.925752 ], [ 11.373343, 46.925432 ], [ 11.373034, 46.925263 ], [ 11.372497, 46.925085 ], [ 11.371881, 46.92526 ], [ 11.371317, 46.925447 ], [ 11.370726, 46.925657 ], [ 11.370094, 46.925923 ], [ 11.369869, 46.926044 ], [ 11.369287, 46.926326 ], [ 11.368427, 46.926241 ], [ 11.367485, 46.926139 ], [ 11.366773, 46.92591 ], [ 11.366548, 46.925793 ], [ 11.365961, 46.925518 ], [ 11.365492, 46.925167 ], [ 11.364925, 46.925305 ], [ 11.364366, 46.925398 ], [ 11.364043, 46.925373 ], [ 11.3637, 46.925344 ], [ 11.363423, 46.925228 ], [ 11.362829, 46.925087 ], [ 11.36226, 46.924811 ], [ 11.361333, 46.924637 ], [ 11.361132, 46.924452 ], [ 11.360905, 46.924277 ], [ 11.360712, 46.924164 ], [ 11.360428, 46.924003 ], [ 11.359792, 46.923787 ], [ 11.359114, 46.923522 ], [ 11.358052, 46.923202 ], [ 11.357409, 46.923062 ], [ 11.357141, 46.922959 ], [ 11.356873, 46.922834 ], [ 11.35658, 46.922683 ], [ 11.355835, 46.922289 ], [ 11.355592, 46.922037 ], [ 11.355415, 46.921883 ], [ 11.35524, 46.921788 ], [ 11.354703, 46.921516 ], [ 11.354117, 46.921262 ], [ 11.353481, 46.921154 ], [ 11.352864, 46.921027 ], [ 11.352247, 46.921094 ], [ 11.351955, 46.921086 ], [ 11.351231, 46.9212 ], [ 11.350022, 46.921315 ], [ 11.349314, 46.921302 ], [ 11.348545, 46.921269 ], [ 11.348278, 46.921234 ], [ 11.347619, 46.921171 ], [ 11.346634, 46.921024 ], [ 11.345799, 46.920916 ], [ 11.345658, 46.920959 ], [ 11.345047, 46.920976 ], [ 11.344758, 46.921045 ], [ 11.344442, 46.92111 ], [ 11.344208, 46.921223 ], [ 11.343445, 46.921657 ], [ 11.342663, 46.9221 ], [ 11.342115, 46.922372 ], [ 11.341857, 46.922472 ], [ 11.341308, 46.922753 ], [ 11.340528, 46.923215 ], [ 11.340054, 46.92349 ], [ 11.339864, 46.923647 ], [ 11.339384, 46.924008 ], [ 11.339168, 46.924129 ], [ 11.338828, 46.924487 ], [ 11.338799, 46.9251 ], [ 11.338679, 46.925777 ], [ 11.338639, 46.925908 ], [ 11.3385, 46.926285 ], [ 11.338292, 46.926469 ], [ 11.33777, 46.9267 ], [ 11.337561, 46.926826 ], [ 11.337011, 46.926931 ], [ 11.335953, 46.927129 ], [ 11.335553, 46.927222 ], [ 11.335329, 46.927312 ], [ 11.335047, 46.927381 ], [ 11.334447, 46.927609 ], [ 11.333632, 46.927909 ], [ 11.332726, 46.928247 ], [ 11.332393, 46.928304 ], [ 11.332067, 46.928319 ], [ 11.331726, 46.92838 ], [ 11.331057, 46.92834 ], [ 11.330307, 46.928265 ], [ 11.32979, 46.928303 ], [ 11.329124, 46.92837 ], [ 11.328749, 46.928432 ], [ 11.328423, 46.928488 ], [ 11.32809, 46.92854 ], [ 11.327541, 46.928654 ], [ 11.32705, 46.928795 ], [ 11.326843, 46.928849 ], [ 11.326536, 46.92894 ], [ 11.326297, 46.929049 ], [ 11.32599, 46.929194 ], [ 11.325304, 46.929573 ], [ 11.324872, 46.9296 ], [ 11.324214, 46.929622 ], [ 11.323607, 46.929679 ], [ 11.323274, 46.929763 ], [ 11.322831, 46.930113 ], [ 11.322196, 46.930527 ], [ 11.321258, 46.930735 ], [ 11.320553, 46.930943 ], [ 11.320304, 46.931042 ], [ 11.319665, 46.931186 ], [ 11.318651, 46.931332 ], [ 11.317948, 46.931679 ], [ 11.317727, 46.931877 ], [ 11.317547, 46.932079 ], [ 11.317258, 46.93222 ], [ 11.316788, 46.932463 ], [ 11.315968, 46.932718 ], [ 11.31516, 46.93327 ], [ 11.314817, 46.933597 ], [ 11.314525, 46.933702 ], [ 11.314287, 46.933801 ], [ 11.313837, 46.933873 ], [ 11.313412, 46.93394 ], [ 11.313412, 46.934295 ], [ 11.313267, 46.934631 ], [ 11.312804, 46.934816 ], [ 11.312359, 46.935149 ], [ 11.312154, 46.935284 ], [ 11.31186, 46.935708 ], [ 11.311788, 46.935831 ], [ 11.31165, 46.935964 ], [ 11.311412, 46.936145 ], [ 11.311014, 46.936337 ], [ 11.310568, 46.936544 ], [ 11.309855, 46.936752 ], [ 11.309597, 46.936847 ], [ 11.308942, 46.937036 ], [ 11.308486, 46.937153 ], [ 11.307805, 46.937257 ], [ 11.307071, 46.937384 ], [ 11.306425, 46.937501 ], [ 11.306175, 46.937623 ], [ 11.305647, 46.93789 ], [ 11.304728, 46.938219 ], [ 11.30393, 46.938388 ], [ 11.303267, 46.938595 ], [ 11.302884, 46.93867 ], [ 11.302304, 46.938826 ], [ 11.301914, 46.938928 ], [ 11.301307, 46.939057 ], [ 11.300849, 46.939138 ], [ 11.300522, 46.939442 ], [ 11.300075, 46.939694 ], [ 11.29981, 46.939794 ], [ 11.299097, 46.939939 ], [ 11.298765, 46.940089 ], [ 11.298293, 46.940279 ], [ 11.29793, 46.940498 ], [ 11.297567, 46.940734 ], [ 11.297283, 46.9411 ], [ 11.297103, 46.941293 ], [ 11.296684, 46.941643 ], [ 11.29639, 46.941923 ], [ 11.295382, 46.942443 ], [ 11.295216, 46.942518 ], [ 11.294901, 46.942651 ], [ 11.294578, 46.942756 ], [ 11.294345, 46.942779 ], [ 11.293654, 46.942851 ], [ 11.292995, 46.942864 ], [ 11.292235, 46.942853 ], [ 11.291763, 46.942948 ], [ 11.291064, 46.943052 ], [ 11.290774, 46.943111 ], [ 11.290074, 46.943197 ], [ 11.289649, 46.943237 ], [ 11.289134, 46.943338 ], [ 11.288244, 46.943522 ], [ 11.287563, 46.94368 ], [ 11.287231, 46.943727 ], [ 11.28665, 46.943914 ], [ 11.286134, 46.944019 ], [ 11.285876, 46.944442 ], [ 11.285516, 46.944899 ], [ 11.285362, 46.945082 ], [ 11.285088, 46.945191 ], [ 11.284764, 46.945306 ], [ 11.284518, 46.945401 ], [ 11.284153, 46.945565 ], [ 11.283905, 46.94571 ], [ 11.28331, 46.946037 ], [ 11.28276, 46.946493 ], [ 11.28258, 46.946645 ], [ 11.282358, 46.946839 ], [ 11.282337, 46.947051 ], [ 11.282182, 46.947319 ], [ 11.282012, 46.947534 ], [ 11.281304, 46.948066 ], [ 11.280925, 46.948352 ], [ 11.280846, 46.948511 ], [ 11.280561, 46.948913 ], [ 11.28033, 46.949057 ], [ 11.280031, 46.949175 ], [ 11.279649, 46.949246 ], [ 11.278976, 46.949354 ], [ 11.278275, 46.949413 ], [ 11.277862, 46.949642 ], [ 11.277589, 46.949787 ], [ 11.277325, 46.949904 ], [ 11.277019, 46.949991 ], [ 11.276462, 46.950191 ], [ 11.275539, 46.950417 ], [ 11.274668, 46.950664 ], [ 11.273972, 46.950821 ], [ 11.273665, 46.950917 ], [ 11.273083, 46.951095 ], [ 11.272294, 46.951273 ], [ 11.271842, 46.951246 ], [ 11.271191, 46.951237 ], [ 11.270893, 46.951247 ], [ 11.270559, 46.951321 ], [ 11.270362, 46.951478 ], [ 11.270102, 46.951888 ], [ 11.269981, 46.952107 ], [ 11.269841, 46.952258 ], [ 11.26953, 46.95252 ], [ 11.269184, 46.952802 ], [ 11.269114, 46.953051 ], [ 11.269052, 46.953286 ], [ 11.268888, 46.953483 ], [ 11.268674, 46.953626 ], [ 11.268426, 46.953775 ], [ 11.268129, 46.953898 ], [ 11.267739, 46.954005 ], [ 11.267181, 46.954155 ], [ 11.266926, 46.954295 ], [ 11.266413, 46.954508 ], [ 11.265866, 46.954757 ], [ 11.265635, 46.954915 ], [ 11.26509, 46.955232 ], [ 11.264621, 46.955547 ], [ 11.264176, 46.955839 ], [ 11.263695, 46.95611 ], [ 11.263143, 46.956404 ], [ 11.262929, 46.956597 ], [ 11.262861, 46.956977 ], [ 11.262838, 46.957117 ], [ 11.263245, 46.957455 ], [ 11.263341, 46.957678 ], [ 11.263508, 46.958201 ], [ 11.263108, 46.95865 ], [ 11.262868, 46.958754 ], [ 11.262356, 46.959052 ], [ 11.261917, 46.959272 ], [ 11.261372, 46.959562 ], [ 11.260812, 46.959883 ], [ 11.260366, 46.960198 ], [ 11.260078, 46.960402 ], [ 11.259889, 46.960496 ], [ 11.259655, 46.960536 ], [ 11.259038, 46.960562 ], [ 11.258328, 46.960558 ], [ 11.257603, 46.960559 ], [ 11.257056, 46.96079 ], [ 11.256759, 46.960931 ], [ 11.25659, 46.961357 ], [ 11.256447, 46.961715 ], [ 11.256463, 46.962179 ], [ 11.256099, 46.962303 ], [ 11.255789, 46.962241 ], [ 11.255448, 46.962257 ], [ 11.255131, 46.962335 ], [ 11.254907, 46.962457 ], [ 11.254496, 46.962762 ], [ 11.254101, 46.963049 ], [ 11.253317, 46.963096 ], [ 11.252748, 46.963012 ], [ 11.252035, 46.962833 ], [ 11.251782, 46.962703 ], [ 11.251496, 46.962582 ], [ 11.25127, 46.962474 ], [ 11.250873, 46.962235 ], [ 11.25027, 46.962121 ], [ 11.250031, 46.962319 ], [ 11.249884, 46.962466 ], [ 11.249677, 46.962555 ], [ 11.249369, 46.962678 ], [ 11.249064, 46.962752 ], [ 11.248822, 46.962815 ], [ 11.248121, 46.962815 ], [ 11.24773, 46.962841 ], [ 11.247544, 46.963205 ], [ 11.247372, 46.963388 ], [ 11.246937, 46.963792 ], [ 11.246519, 46.964161 ], [ 11.246327, 46.964277 ], [ 11.245917, 46.964586 ], [ 11.246175, 46.965022 ], [ 11.245785, 46.965187 ], [ 11.24536, 46.965218 ], [ 11.244968, 46.965239 ], [ 11.244676, 46.965268 ], [ 11.244369, 46.965346 ], [ 11.244063, 46.965464 ], [ 11.243814, 46.965586 ], [ 11.24355, 46.965762 ], [ 11.24313, 46.96609 ], [ 11.242683, 46.966261 ], [ 11.242068, 46.966471 ], [ 11.241591, 46.966858 ], [ 11.241361, 46.967038 ], [ 11.241311, 46.967466 ], [ 11.241325, 46.967885 ], [ 11.241344, 46.968348 ], [ 11.241367, 46.968797 ], [ 11.24136, 46.969256 ], [ 11.241432, 46.969619 ], [ 11.242087, 46.969841 ], [ 11.242356, 46.969952 ], [ 11.24265, 46.970072 ], [ 11.242962, 46.970269 ], [ 11.243058, 46.970424 ], [ 11.243169, 46.970562 ], [ 11.243381, 46.970783 ], [ 11.243543, 46.970955 ], [ 11.243983, 46.971324 ], [ 11.244322, 46.971565 ], [ 11.245408, 46.972133 ], [ 11.246006, 46.972441 ], [ 11.246259, 46.97258 ], [ 11.246798, 46.972862 ], [ 11.247186, 46.973088 ], [ 11.247767, 46.973392 ], [ 11.248365, 46.973682 ], [ 11.248618, 46.973776 ], [ 11.248986, 46.973831 ], [ 11.249261, 46.97388 ], [ 11.249553, 46.973865 ], [ 11.249954, 46.973875 ], [ 11.250648, 46.973911 ], [ 11.251515, 46.973863 ], [ 11.251883, 46.973932 ], [ 11.252554, 46.974045 ], [ 11.252812, 46.97408 ], [ 11.25349, 46.974139 ], [ 11.254475, 46.974115 ], [ 11.255451, 46.974141 ], [ 11.25612, 46.974181 ], [ 11.256469, 46.974143 ], [ 11.256907, 46.974341 ], [ 11.257068, 46.974451 ], [ 11.257267, 46.974888 ], [ 11.257883, 46.976081 ], [ 11.258003, 46.976322 ], [ 11.25817, 46.976742 ], [ 11.258386, 46.977187 ], [ 11.258567, 46.977571 ], [ 11.258741, 46.977873 ], [ 11.258895, 46.978037 ], [ 11.259039, 46.978232 ], [ 11.259225, 46.978395 ], [ 11.259461, 46.978503 ], [ 11.259975, 46.978776 ], [ 11.260727, 46.979234 ], [ 11.261469, 46.979664 ], [ 11.261958, 46.979934 ], [ 11.262219, 46.980068 ], [ 11.262809, 46.98034 ], [ 11.263252, 46.980394 ], [ 11.26387, 46.980476 ], [ 11.264739, 46.98041 ], [ 11.265449, 46.980423 ], [ 11.265772, 46.980362 ], [ 11.26643, 46.980286 ], [ 11.267314, 46.980147 ], [ 11.268203, 46.979999 ], [ 11.268952, 46.979867 ], [ 11.269269, 46.979829 ], [ 11.269945, 46.979762 ], [ 11.270902, 46.979689 ], [ 11.271856, 46.979801 ], [ 11.272518, 46.9799 ], [ 11.272812, 46.980007 ], [ 11.273433, 46.980152 ], [ 11.274364, 46.980408 ], [ 11.275324, 46.98042 ], [ 11.276033, 46.980456 ], [ 11.276278, 46.980518 ], [ 11.276865, 46.980714 ], [ 11.277219, 46.980859 ], [ 11.277722, 46.981056 ], [ 11.278193, 46.981196 ], [ 11.278571, 46.981404 ], [ 11.279053, 46.981687 ], [ 11.279315, 46.981803 ], [ 11.2796, 46.981937 ], [ 11.279936, 46.982038 ], [ 11.280464, 46.982185 ], [ 11.280899, 46.982226 ], [ 11.281887, 46.982404 ], [ 11.282458, 46.982537 ], [ 11.282768, 46.982571 ], [ 11.283438, 46.982742 ], [ 11.283623, 46.982793 ], [ 11.284227, 46.98292 ], [ 11.284681, 46.983078 ], [ 11.28515, 46.983212 ], [ 11.285445, 46.983364 ], [ 11.285766, 46.983537 ], [ 11.285968, 46.983709 ], [ 11.286275, 46.984009 ], [ 11.286495, 46.984175 ], [ 11.286892, 46.98486 ], [ 11.287089, 46.985162 ], [ 11.287215, 46.985214 ], [ 11.287822, 46.985454 ], [ 11.288115, 46.985529 ], [ 11.288831, 46.985465 ], [ 11.289072, 46.985451 ], [ 11.289625, 46.98549 ], [ 11.290294, 46.985571 ], [ 11.290681, 46.985707 ], [ 11.29121, 46.985849 ], [ 11.291587, 46.98595 ], [ 11.292207, 46.98605 ], [ 11.292433, 46.986077 ], [ 11.293008, 46.986007 ], [ 11.294148, 46.985822 ], [ 11.294789, 46.985719 ], [ 11.295038, 46.985651 ], [ 11.29572, 46.985534 ], [ 11.296218, 46.985411 ], [ 11.296818, 46.985305 ], [ 11.297522, 46.984989 ], [ 11.298111, 46.984784 ], [ 11.298333, 46.984604 ], [ 11.298693, 46.984277 ], [ 11.298851, 46.984171 ], [ 11.299421, 46.983898 ], [ 11.300331, 46.983506 ], [ 11.300938, 46.98331 ], [ 11.301213, 46.983232 ], [ 11.301854, 46.983156 ], [ 11.302948, 46.983197 ], [ 11.303762, 46.983478 ], [ 11.304393, 46.983668 ], [ 11.304704, 46.983783 ], [ 11.304948, 46.983859 ], [ 11.305282, 46.983929 ], [ 11.305634, 46.983957 ], [ 11.305643, 46.983958 ], [ 11.305918, 46.98397 ], [ 11.306419, 46.984009 ], [ 11.307179, 46.98399 ], [ 11.307898, 46.984002 ], [ 11.30824, 46.984049 ], [ 11.30849, 46.984103 ], [ 11.308853, 46.984203 ], [ 11.309089, 46.984329 ], [ 11.309267, 46.984505 ], [ 11.309564, 46.984751 ], [ 11.309793, 46.984949 ], [ 11.310018, 46.985309 ], [ 11.310307, 46.985677 ], [ 11.310436, 46.985832 ], [ 11.310804, 46.986243 ], [ 11.311001, 46.98654 ], [ 11.311222, 46.986765 ], [ 11.31147, 46.987093 ], [ 11.311877, 46.987387 ], [ 11.31216, 46.987786 ], [ 11.312381, 46.987939 ], [ 11.312771, 46.988291 ], [ 11.313, 46.988498 ], [ 11.313348, 46.988824 ], [ 11.313705, 46.989064 ], [ 11.31406, 46.989318 ], [ 11.314656, 46.989553 ], [ 11.314852, 46.98968 ], [ 11.31517, 46.989786 ], [ 11.315415, 46.989938 ], [ 11.31568, 46.990185 ], [ 11.315986, 46.990507 ], [ 11.316282, 46.990807 ], [ 11.316673, 46.991047 ], [ 11.317094, 46.991335 ], [ 11.317356, 46.991487 ], [ 11.317848, 46.991806 ], [ 11.318235, 46.992019 ], [ 11.31885, 46.992272 ], [ 11.319345, 46.992428 ], [ 11.31982, 46.992387 ], [ 11.320103, 46.992336 ], [ 11.320428, 46.992249 ], [ 11.321025, 46.99207 ], [ 11.321905, 46.991737 ], [ 11.322799, 46.991418 ], [ 11.323314, 46.991236 ], [ 11.323629, 46.991131 ], [ 11.324226, 46.990889 ], [ 11.325195, 46.990509 ], [ 11.325691, 46.990319 ], [ 11.325959, 46.990273 ], [ 11.326633, 46.990197 ], [ 11.326859, 46.990188 ], [ 11.327051, 46.990148 ], [ 11.327447, 46.989672 ], [ 11.327755, 46.989476 ], [ 11.328027, 46.989304 ], [ 11.328386, 46.989099 ], [ 11.328769, 46.988956 ], [ 11.32906, 46.988851 ], [ 11.329327, 46.98872 ], [ 11.329601, 46.988561 ], [ 11.32991, 46.988461 ], [ 11.330201, 46.98841 ], [ 11.330626, 46.988433 ], [ 11.331095, 46.988441 ], [ 11.331611, 46.988404 ], [ 11.332197, 46.988455 ], [ 11.332656, 46.988558 ], [ 11.333219, 46.988717 ], [ 11.33357, 46.988778 ], [ 11.333786, 46.988827 ], [ 11.333928, 46.988824 ], [ 11.334112, 46.988767 ], [ 11.334311, 46.988672 ], [ 11.33457, 46.988474 ], [ 11.334677, 46.988364 ], [ 11.334717, 46.988088 ], [ 11.334764, 46.987889 ], [ 11.334846, 46.98755 ], [ 11.334869, 46.987298 ], [ 11.335257, 46.986588 ], [ 11.335462, 46.986251 ], [ 11.335601, 46.985964 ], [ 11.335876, 46.985774 ], [ 11.336149, 46.985368 ], [ 11.336273, 46.985208 ], [ 11.33653, 46.985108 ], [ 11.336782, 46.985081 ], [ 11.337081, 46.984976 ], [ 11.337499, 46.984958 ], [ 11.337976, 46.985007 ], [ 11.338501, 46.985032 ], [ 11.338918, 46.984934 ], [ 11.339186, 46.984991 ], [ 11.339561, 46.985096 ], [ 11.339939, 46.985178 ], [ 11.340423, 46.98529 ], [ 11.340909, 46.985406 ], [ 11.341314, 46.985798 ], [ 11.341557, 46.98609 ], [ 11.341743, 46.986329 ], [ 11.342073, 46.986984 ], [ 11.342177, 46.987342 ], [ 11.342253, 46.987592 ], [ 11.342323, 46.987897 ], [ 11.342418, 46.988354 ], [ 11.342637, 46.988597 ], [ 11.342906, 46.988866 ], [ 11.343266, 46.988989 ], [ 11.343493, 46.989178 ], [ 11.343954, 46.98938 ], [ 11.344306, 46.989575 ], [ 11.34455, 46.989782 ], [ 11.345189, 46.990268 ], [ 11.34539, 46.990421 ], [ 11.345625, 46.99047 ], [ 11.345892, 46.990533 ], [ 11.346109, 46.990537 ], [ 11.34646, 46.990467 ], [ 11.346921, 46.990561 ], [ 11.347112, 46.990553 ], [ 11.347286, 46.990436 ], [ 11.347503, 46.990243 ], [ 11.347609, 46.990092 ], [ 11.347834, 46.989939 ], [ 11.348233, 46.989756 ], [ 11.34844, 46.989661 ], [ 11.348865, 46.989522 ], [ 11.349234, 46.989479 ], [ 11.350384, 46.989315 ], [ 11.351294, 46.989288 ], [ 11.351829, 46.989371 ], [ 11.352256, 46.989502 ], [ 11.35265, 46.989606 ], [ 11.353176, 46.989762 ], [ 11.353687, 46.989905 ], [ 11.354013, 46.989943 ], [ 11.354498, 46.989991 ], [ 11.354816, 46.990061 ], [ 11.355577, 46.990298 ], [ 11.356029, 46.990401 ], [ 11.356589, 46.990443 ], [ 11.35705, 46.990461 ], [ 11.357442, 46.990493 ], [ 11.357767, 46.990482 ], [ 11.358009, 46.990423 ], [ 11.358325, 46.990362 ], [ 11.358534, 46.990246 ], [ 11.3588, 46.990128 ], [ 11.358942, 46.990035 ], [ 11.359157, 46.989905 ], [ 11.359141, 46.990028 ], [ 11.359108, 46.990133 ], [ 11.3591, 46.9902 ], [ 11.358414, 46.992939 ], [ 11.358344, 46.993223 ], [ 11.357769, 46.99384 ], [ 11.357202, 46.994478 ], [ 11.3566, 46.99535 ], [ 11.3562, 46.995941 ], [ 11.35613, 46.996071 ], [ 11.356045, 46.99631 ], [ 11.355723, 46.997331 ], [ 11.355757, 46.997461 ], [ 11.355918, 46.998082 ], [ 11.356941, 47.001936 ], [ 11.356941, 47.001948 ], [ 11.356909, 47.003101 ], [ 11.358124, 47.005006 ], [ 11.358349, 47.005242 ], [ 11.35947, 47.006423 ], [ 11.359537, 47.006493 ], [ 11.359532, 47.009608 ], [ 11.360226, 47.010914 ], [ 11.360227, 47.010915 ], [ 11.360468, 47.011603 ], [ 11.361136, 47.013516 ], [ 11.361725, 47.015153 ], [ 11.365103, 47.015368 ], [ 11.366942, 47.015485 ], [ 11.367254, 47.016007 ], [ 11.368789, 47.016871 ], [ 11.369359, 47.017192 ], [ 11.373561, 47.018411 ], [ 11.375756, 47.019048 ], [ 11.376045, 47.019169 ], [ 11.377062, 47.019598 ], [ 11.37743, 47.019754 ], [ 11.38046, 47.021031 ], [ 11.381135, 47.021292 ], [ 11.380845, 47.022593 ], [ 11.381861, 47.023582 ], [ 11.382079, 47.024209 ], [ 11.382243, 47.024683 ], [ 11.382959, 47.025481 ], [ 11.383839, 47.027028 ], [ 11.385451, 47.028199 ], [ 11.386099, 47.02867 ], [ 11.386844, 47.029206 ], [ 11.388864, 47.028644 ], [ 11.391301, 47.027966 ], [ 11.392961, 47.028093 ], [ 11.393089, 47.028123 ], [ 11.393513, 47.028223 ], [ 11.393674, 47.028261 ], [ 11.395055, 47.028587 ], [ 11.395642, 47.028726 ], [ 11.39769, 47.029506 ], [ 11.399618, 47.030241 ], [ 11.401976, 47.032278 ], [ 11.402211, 47.032481 ], [ 11.402913, 47.033012 ], [ 11.40338, 47.033365 ], [ 11.405353, 47.033553 ], [ 11.408212, 47.034578 ], [ 11.410298, 47.037208 ], [ 11.410481, 47.037439 ], [ 11.410956, 47.038037 ], [ 11.414015, 47.039349 ], [ 11.413732, 47.040005 ], [ 11.413748, 47.040418 ], [ 11.413168, 47.041875 ], [ 11.413219, 47.041911 ], [ 11.414431, 47.042762 ], [ 11.415799, 47.044091 ], [ 11.416715, 47.042717 ], [ 11.418632, 47.042637 ], [ 11.419798, 47.042588 ], [ 11.421168, 47.043055 ], [ 11.425107, 47.044265 ], [ 11.426909, 47.045282 ], [ 11.426958, 47.04531 ], [ 11.427878, 47.046211 ], [ 11.427895, 47.046227 ], [ 11.427937, 47.046269 ], [ 11.428191, 47.046517 ], [ 11.428114, 47.046729 ], [ 11.427997, 47.047065 ], [ 11.428764, 47.047846 ], [ 11.428951, 47.048422 ], [ 11.428992, 47.049565 ], [ 11.428454, 47.050244 ], [ 11.428541, 47.050761 ], [ 11.428586, 47.05103 ], [ 11.429221, 47.051177 ], [ 11.430942, 47.051288 ], [ 11.432738, 47.05081 ], [ 11.435271, 47.051991 ], [ 11.436081, 47.052369 ], [ 11.436193, 47.052496 ], [ 11.438545, 47.055163 ], [ 11.438976, 47.05565 ], [ 11.441283, 47.05829 ], [ 11.44133, 47.058709 ], [ 11.441717, 47.059071 ], [ 11.441909, 47.059222 ], [ 11.442256, 47.059498 ], [ 11.442224, 47.059625 ], [ 11.442162, 47.059865 ], [ 11.442154, 47.060429 ], [ 11.442989, 47.060854 ], [ 11.443694, 47.061496 ], [ 11.443734, 47.061533 ], [ 11.444164, 47.061877 ], [ 11.445432, 47.063544 ], [ 11.446491, 47.063981 ], [ 11.446634, 47.064069 ], [ 11.446651, 47.064079 ], [ 11.446665, 47.064088 ], [ 11.447304, 47.064483 ], [ 11.448174, 47.065021 ], [ 11.448804, 47.065012 ], [ 11.44911, 47.065007 ], [ 11.449434, 47.064805 ], [ 11.450147, 47.064359 ], [ 11.450972, 47.065372 ], [ 11.451185, 47.065634 ], [ 11.451581, 47.066121 ], [ 11.451644, 47.066198 ], [ 11.451519, 47.066421 ], [ 11.450844, 47.067619 ], [ 11.450743, 47.067797 ], [ 11.450825, 47.068536 ], [ 11.451025, 47.07034 ], [ 11.451377, 47.071341 ], [ 11.452127, 47.07137 ], [ 11.453963, 47.071441 ], [ 11.454564, 47.071414 ], [ 11.454572, 47.071414 ], [ 11.454617, 47.071412 ], [ 11.454633, 47.071411 ], [ 11.455535, 47.071371 ], [ 11.455831, 47.071347 ], [ 11.455871, 47.071344 ], [ 11.455958, 47.071337 ], [ 11.456238, 47.071315 ], [ 11.456264, 47.071312 ], [ 11.456299, 47.07131 ], [ 11.456342, 47.071306 ], [ 11.457246, 47.071234 ], [ 11.457353, 47.071221 ], [ 11.45743, 47.071211 ], [ 11.458395, 47.071094 ], [ 11.45873, 47.071624 ], [ 11.460371, 47.072118 ], [ 11.462156, 47.072655 ], [ 11.462693, 47.072917 ], [ 11.463922, 47.073518 ], [ 11.465344, 47.074041 ], [ 11.465407, 47.074121 ], [ 11.465482, 47.074214 ], [ 11.465505, 47.074241 ], [ 11.467764, 47.07558 ], [ 11.468202, 47.07584 ], [ 11.468685, 47.07611 ], [ 11.468916, 47.076239 ], [ 11.468735, 47.075462 ], [ 11.468703, 47.075319 ], [ 11.468803, 47.075004 ], [ 11.468823, 47.074939 ], [ 11.468905, 47.074696 ], [ 11.468933, 47.074606 ], [ 11.469561, 47.073771 ], [ 11.470311, 47.073727 ], [ 11.470454, 47.073655 ], [ 11.471146, 47.073308 ], [ 11.471409, 47.073176 ], [ 11.471628, 47.072829 ], [ 11.471683, 47.072742 ], [ 11.47188, 47.072428 ], [ 11.472172, 47.072225 ], [ 11.473258, 47.07228 ], [ 11.473305, 47.072282 ], [ 11.473275, 47.072623 ], [ 11.473273, 47.072654 ], [ 11.47327, 47.072692 ], [ 11.473271, 47.072813 ], [ 11.473272, 47.072888 ], [ 11.473293, 47.072968 ], [ 11.47344, 47.073121 ], [ 11.473467, 47.073314 ], [ 11.473457, 47.073454 ], [ 11.473454, 47.073493 ], [ 11.473444, 47.073647 ], [ 11.473467, 47.073654 ], [ 11.473991, 47.073798 ], [ 11.474396, 47.073898 ], [ 11.474588, 47.073945 ], [ 11.474572, 47.074364 ], [ 11.474555, 47.074802 ], [ 11.474821, 47.074856 ], [ 11.474849, 47.074907 ], [ 11.475103, 47.075375 ], [ 11.475221, 47.075441 ], [ 11.475414, 47.075499 ], [ 11.475722, 47.075492 ], [ 11.475929, 47.075193 ], [ 11.476136, 47.07487 ], [ 11.476241, 47.07469 ], [ 11.476332, 47.074515 ], [ 11.476741, 47.074258 ], [ 11.476874, 47.074232 ], [ 11.476911, 47.074224 ], [ 11.47721, 47.074173 ], [ 11.477247, 47.074169 ], [ 11.477511, 47.074224 ], [ 11.477775, 47.074509 ], [ 11.477863, 47.074492 ], [ 11.477917, 47.074507 ], [ 11.477993, 47.074529 ], [ 11.478265, 47.074607 ], [ 11.478581, 47.074304 ], [ 11.478562, 47.074211 ], [ 11.478561, 47.074133 ], [ 11.478643, 47.074008 ], [ 11.478918, 47.074068 ], [ 11.479146, 47.073852 ], [ 11.479379, 47.07363 ], [ 11.479332, 47.073532 ], [ 11.479463, 47.073509 ], [ 11.479594, 47.073159 ], [ 11.479694, 47.073205 ], [ 11.479897, 47.073296 ], [ 11.479999, 47.07323 ], [ 11.480129, 47.073137 ], [ 11.480536, 47.072769 ], [ 11.480579, 47.072941 ], [ 11.481166, 47.072885 ], [ 11.481443, 47.072926 ], [ 11.481528, 47.072731 ], [ 11.481573, 47.072628 ], [ 11.481661, 47.07246 ], [ 11.481712, 47.072366 ], [ 11.481751, 47.072173 ], [ 11.481457, 47.071915 ], [ 11.48178, 47.07189 ], [ 11.481932, 47.071833 ], [ 11.481951, 47.071804 ], [ 11.48201, 47.071715 ], [ 11.481764, 47.071412 ], [ 11.482179, 47.071317 ], [ 11.482231, 47.071112 ], [ 11.482537, 47.07095 ], [ 11.482622, 47.071014 ], [ 11.482771, 47.070907 ], [ 11.482727, 47.07053 ], [ 11.482835, 47.070367 ], [ 11.482829, 47.070273 ], [ 11.482822, 47.07015 ], [ 11.483009, 47.069827 ], [ 11.483042, 47.069836 ], [ 11.483288, 47.069544 ], [ 11.483209, 47.069132 ], [ 11.483148, 47.068968 ], [ 11.483054, 47.068714 ], [ 11.482875, 47.068393 ], [ 11.482843, 47.06822 ], [ 11.482837, 47.068189 ], [ 11.482804, 47.068089 ], [ 11.482577, 47.067954 ], [ 11.482529, 47.06786 ], [ 11.48236, 47.067796 ], [ 11.482285, 47.067734 ], [ 11.48187, 47.067758 ], [ 11.481369, 47.067802 ], [ 11.481114, 47.067747 ], [ 11.481027, 47.067721 ], [ 11.48083, 47.067661 ], [ 11.480674, 47.067633 ], [ 11.480544, 47.067609 ], [ 11.480052, 47.067486 ], [ 11.480038, 47.06748 ], [ 11.479887, 47.067422 ], [ 11.47961, 47.067314 ], [ 11.479291, 47.06708 ], [ 11.479068, 47.067108 ], [ 11.47902, 47.067113 ], [ 11.478773, 47.067142 ], [ 11.478196, 47.0668 ], [ 11.478458, 47.066777 ], [ 11.478771, 47.066751 ], [ 11.478798, 47.066641 ], [ 11.47904, 47.066423 ], [ 11.479099, 47.066375 ], [ 11.479209, 47.066296 ], [ 11.479272, 47.066251 ], [ 11.479655, 47.065995 ], [ 11.479718, 47.066076 ], [ 11.479747, 47.066095 ], [ 11.479784, 47.066119 ], [ 11.479759, 47.06591 ], [ 11.479777, 47.065738 ], [ 11.479768, 47.065424 ], [ 11.479748, 47.065189 ], [ 11.479705, 47.064871 ], [ 11.479676, 47.064484 ], [ 11.479658, 47.064366 ], [ 11.4797, 47.064371 ], [ 11.479801, 47.06438 ], [ 11.47985, 47.064385 ], [ 11.480065, 47.064405 ], [ 11.480124, 47.064568 ], [ 11.480353, 47.064865 ], [ 11.480533, 47.065097 ], [ 11.480635, 47.065229 ], [ 11.480786, 47.065335 ], [ 11.481011, 47.065482 ], [ 11.481206, 47.06561 ], [ 11.48133, 47.065691 ], [ 11.48145, 47.06577 ], [ 11.481683, 47.065936 ], [ 11.481796, 47.066078 ], [ 11.481833, 47.065577 ], [ 11.48176, 47.065393 ], [ 11.481626, 47.065055 ], [ 11.482062, 47.064908 ], [ 11.482146, 47.064208 ], [ 11.482156, 47.064129 ], [ 11.482691, 47.06385 ], [ 11.482772, 47.063723 ], [ 11.482798, 47.063683 ], [ 11.482841, 47.063647 ], [ 11.482885, 47.063612 ], [ 11.482889, 47.063608 ], [ 11.483025, 47.06351 ], [ 11.483163, 47.063421 ], [ 11.483293, 47.063361 ], [ 11.483417, 47.063283 ], [ 11.483648, 47.063232 ], [ 11.483745, 47.063091 ], [ 11.483786, 47.062972 ], [ 11.483834, 47.062797 ], [ 11.483814, 47.062653 ], [ 11.483961, 47.062524 ], [ 11.484649, 47.062197 ], [ 11.484849, 47.062423 ], [ 11.48533, 47.062963 ], [ 11.485934, 47.063237 ], [ 11.486602, 47.063495 ], [ 11.486773, 47.063561 ], [ 11.48709, 47.06368 ], [ 11.487126, 47.063693 ], [ 11.487236, 47.063843 ], [ 11.487377, 47.064066 ], [ 11.487453, 47.06405 ], [ 11.487301, 47.063678 ], [ 11.487218, 47.063476 ], [ 11.487206, 47.063413 ], [ 11.487205, 47.06336 ], [ 11.487227, 47.063315 ], [ 11.487123, 47.063106 ], [ 11.487079, 47.062862 ], [ 11.487054, 47.062611 ], [ 11.487049, 47.062478 ], [ 11.487043, 47.062445 ], [ 11.487028, 47.062407 ], [ 11.486897, 47.062242 ], [ 11.486744, 47.062116 ], [ 11.486728, 47.062103 ], [ 11.486574, 47.06195 ], [ 11.486305, 47.061489 ], [ 11.486365, 47.061472 ], [ 11.486469, 47.061441 ], [ 11.486568, 47.061402 ], [ 11.486824, 47.061301 ], [ 11.486874, 47.061281 ], [ 11.486922, 47.061262 ], [ 11.487505, 47.061075 ], [ 11.487647, 47.061301 ], [ 11.487662, 47.061325 ], [ 11.487744, 47.061617 ], [ 11.487879, 47.061895 ], [ 11.487994, 47.062237 ], [ 11.488063, 47.062353 ], [ 11.488082, 47.062582 ], [ 11.488149, 47.062717 ], [ 11.488216, 47.062916 ], [ 11.488312, 47.06302 ], [ 11.488391, 47.063074 ], [ 11.488467, 47.063126 ], [ 11.488608, 47.06311 ], [ 11.488604, 47.063018 ], [ 11.488684, 47.062692 ], [ 11.489499, 47.062202 ], [ 11.489819, 47.06174 ], [ 11.489906, 47.061615 ], [ 11.490265, 47.061097 ], [ 11.490742, 47.060745 ], [ 11.490951, 47.060389 ], [ 11.491309, 47.060247 ], [ 11.49156, 47.060306 ], [ 11.49206, 47.060035 ], [ 11.492075, 47.059664 ], [ 11.492211, 47.059455 ], [ 11.492507, 47.059251 ], [ 11.492742, 47.059125 ], [ 11.493002, 47.058985 ], [ 11.493368, 47.058789 ], [ 11.494081, 47.058568 ], [ 11.494345, 47.058352 ], [ 11.495121, 47.057853 ], [ 11.495204, 47.057516 ], [ 11.495297, 47.057443 ], [ 11.495132, 47.05706 ], [ 11.495449, 47.056811 ], [ 11.495855, 47.056543 ], [ 11.49617, 47.056376 ], [ 11.496203, 47.056114 ], [ 11.496445, 47.055996 ], [ 11.496529, 47.055582 ], [ 11.497168, 47.054698 ], [ 11.497402, 47.054581 ], [ 11.497893, 47.054334 ], [ 11.49811, 47.053731 ], [ 11.498239, 47.053502 ], [ 11.497902, 47.053011 ], [ 11.498491, 47.05227 ], [ 11.498574, 47.052165 ], [ 11.498721, 47.051645 ], [ 11.499486, 47.051747 ], [ 11.499995, 47.051696 ], [ 11.500371, 47.05158 ], [ 11.500686, 47.051386 ], [ 11.500883, 47.051263 ], [ 11.501059, 47.051155 ], [ 11.50112, 47.051117 ], [ 11.501744, 47.050731 ], [ 11.502371, 47.050344 ], [ 11.502494, 47.050118 ], [ 11.50254, 47.050031 ], [ 11.502559, 47.049997 ], [ 11.502586, 47.049947 ], [ 11.50284, 47.049393 ], [ 11.503562, 47.04929 ], [ 11.503762, 47.049384 ], [ 11.504303, 47.048742 ], [ 11.504109, 47.048508 ], [ 11.504212, 47.048083 ], [ 11.504238, 47.047978 ], [ 11.504515, 47.047411 ], [ 11.504757, 47.047141 ], [ 11.505556, 47.04625 ], [ 11.505744, 47.04604 ], [ 11.505772, 47.045951 ], [ 11.505915, 47.045499 ], [ 11.505963, 47.045348 ], [ 11.506414, 47.044518 ], [ 11.506759, 47.043881 ], [ 11.50687, 47.043676 ], [ 11.50714, 47.043062 ], [ 11.507286, 47.042835 ], [ 11.506293, 47.042208 ], [ 11.506219, 47.041586 ], [ 11.505204, 47.041208 ], [ 11.505051, 47.04101 ], [ 11.504782, 47.040664 ], [ 11.504395, 47.040163 ], [ 11.503954, 47.039593 ], [ 11.503922, 47.039211 ], [ 11.50384, 47.039128 ], [ 11.503773, 47.039059 ], [ 11.503332, 47.038458 ], [ 11.503222, 47.038307 ], [ 11.503175, 47.037394 ], [ 11.502727, 47.036536 ], [ 11.50233, 47.035778 ], [ 11.502161, 47.035455 ], [ 11.502038, 47.03522 ], [ 11.501853, 47.034866 ], [ 11.501504, 47.034199 ], [ 11.501533, 47.034065 ], [ 11.501414, 47.034087 ], [ 11.501433, 47.033664 ], [ 11.501441, 47.03348 ], [ 11.501454, 47.03321 ], [ 11.501185, 47.033046 ], [ 11.500658, 47.032723 ], [ 11.500454, 47.032599 ], [ 11.500394, 47.032352 ], [ 11.500281, 47.032064 ], [ 11.500224, 47.03192 ], [ 11.500379, 47.031684 ], [ 11.499839, 47.03152 ], [ 11.498973, 47.031251 ], [ 11.498104, 47.031201 ], [ 11.498111, 47.031118 ], [ 11.498143, 47.030753 ], [ 11.499527, 47.03085 ], [ 11.499926, 47.030709 ], [ 11.500062, 47.030775 ], [ 11.500615, 47.030752 ], [ 11.500888, 47.03074 ], [ 11.501483, 47.030664 ], [ 11.501768, 47.030477 ], [ 11.501772, 47.030474 ], [ 11.502229, 47.030176 ], [ 11.502252, 47.030161 ], [ 11.502192, 47.029869 ], [ 11.502314, 47.029758 ], [ 11.502914, 47.029654 ], [ 11.50296, 47.029613 ], [ 11.503279, 47.029615 ], [ 11.503553, 47.029639 ], [ 11.503883, 47.029401 ], [ 11.504223, 47.029157 ], [ 11.504265, 47.029158 ], [ 11.504638, 47.029167 ], [ 11.504823, 47.029172 ], [ 11.5049, 47.02907 ], [ 11.504681, 47.028816 ], [ 11.503701, 47.028348 ], [ 11.504778, 47.028103 ], [ 11.505594, 47.027789 ], [ 11.505737, 47.027511 ], [ 11.505932, 47.027132 ], [ 11.506006, 47.027026 ], [ 11.506401, 47.026232 ], [ 11.507219, 47.026126 ], [ 11.507829, 47.025658 ], [ 11.508728, 47.025746 ], [ 11.510169, 47.025887 ], [ 11.511927, 47.025762 ], [ 11.511871, 47.025334 ], [ 11.513464, 47.025328 ], [ 11.513513, 47.025328 ], [ 11.51694, 47.025315 ], [ 11.51713, 47.025315 ], [ 11.517256, 47.025325 ], [ 11.51796, 47.025379 ], [ 11.518134, 47.025393 ], [ 11.518583, 47.025343 ], [ 11.518994, 47.025297 ], [ 11.522686, 47.024883 ], [ 11.524477, 47.024141 ], [ 11.525129, 47.023871 ], [ 11.527746, 47.022786 ], [ 11.52865, 47.022412 ], [ 11.531176, 47.022014 ], [ 11.53331, 47.022074 ], [ 11.533666, 47.022083 ], [ 11.537549, 47.02266 ], [ 11.537698, 47.022683 ], [ 11.540414, 47.023086 ], [ 11.54155, 47.022906 ], [ 11.543328, 47.022624 ], [ 11.543967, 47.022522 ], [ 11.546848, 47.022347 ], [ 11.547152, 47.021989 ], [ 11.549256, 47.021637 ], [ 11.549565, 47.021585 ], [ 11.54974, 47.021555 ], [ 11.549977, 47.021516 ], [ 11.554415, 47.022162 ], [ 11.555667, 47.021203 ], [ 11.556265, 47.020749 ], [ 11.557553, 47.019769 ], [ 11.557914, 47.019495 ], [ 11.558032, 47.019405 ], [ 11.559964, 47.017949 ], [ 11.562184, 47.016332 ], [ 11.565998, 47.013551 ], [ 11.566225, 47.013385 ], [ 11.566384, 47.013268 ], [ 11.569592, 47.011242 ], [ 11.571168, 47.010307 ], [ 11.574146, 47.010444 ], [ 11.575938, 47.010526 ], [ 11.582353, 47.009917 ], [ 11.582674, 47.009887 ], [ 11.582789, 47.009838 ], [ 11.582927, 47.009779 ], [ 11.583359, 47.009508 ], [ 11.584666, 47.008688 ], [ 11.589909, 47.0054 ], [ 11.590454, 47.005059 ], [ 11.589844, 47.004895 ], [ 11.589808, 47.004886 ], [ 11.589782, 47.00488 ], [ 11.589218, 47.004743 ], [ 11.589076, 47.004705 ], [ 11.588891, 47.004655 ], [ 11.588458, 47.004427 ], [ 11.588174, 47.004298 ], [ 11.587321, 47.003881 ], [ 11.586752, 47.003664 ], [ 11.586193, 47.003452 ], [ 11.585893, 47.003342 ], [ 11.585808, 47.003309 ], [ 11.585324, 47.003125 ], [ 11.584463, 47.002794 ], [ 11.58388, 47.002559 ], [ 11.583511, 47.002487 ], [ 11.582935, 47.002369 ], [ 11.582684, 47.002249 ], [ 11.582417, 47.002169 ], [ 11.582008, 47.002048 ], [ 11.581515, 47.001807 ], [ 11.58083, 47.00149 ], [ 11.580605, 47.001181 ], [ 11.580561, 47.001122 ], [ 11.580582, 47.000739 ], [ 11.580538, 47.000434 ], [ 11.580674, 46.99995 ], [ 11.580768, 46.999448 ], [ 11.58087, 46.998996 ], [ 11.580934, 46.998639 ], [ 11.580956, 46.998517 ], [ 11.580966, 46.998456 ], [ 11.581044, 46.997957 ], [ 11.581085, 46.99765 ], [ 11.58109, 46.997385 ], [ 11.581022, 46.997311 ], [ 11.580845, 46.99712 ], [ 11.579998, 46.997022 ], [ 11.579797, 46.996959 ], [ 11.579395, 46.996833 ], [ 11.579076, 46.99668 ], [ 11.57885, 46.996571 ], [ 11.578552, 46.996389 ], [ 11.578324, 46.99625 ], [ 11.577838, 46.995964 ], [ 11.577352, 46.99575 ], [ 11.5772, 46.995632 ], [ 11.577127, 46.995575 ], [ 11.576977, 46.995515 ], [ 11.576661, 46.995365 ], [ 11.57612, 46.99513 ], [ 11.575297, 46.994865 ], [ 11.575127, 46.994811 ], [ 11.574396, 46.994579 ], [ 11.574137, 46.994506 ], [ 11.574135, 46.994506 ], [ 11.573773, 46.994404 ], [ 11.573648, 46.99438 ], [ 11.573464, 46.994344 ], [ 11.572941, 46.994121 ], [ 11.572745, 46.99402 ], [ 11.57245, 46.993867 ], [ 11.572026, 46.993666 ], [ 11.571735, 46.993528 ], [ 11.571457, 46.993368 ], [ 11.571438, 46.993357 ], [ 11.571336, 46.993298 ], [ 11.570738, 46.993109 ], [ 11.57037, 46.99305 ], [ 11.569787, 46.992946 ], [ 11.568787, 46.99282 ], [ 11.568309, 46.992788 ], [ 11.567868, 46.992759 ], [ 11.567168, 46.992771 ], [ 11.567165, 46.992771 ], [ 11.566826, 46.992787 ], [ 11.566149, 46.99278 ], [ 11.565374, 46.992694 ], [ 11.56537, 46.992693 ], [ 11.565057, 46.992658 ], [ 11.564573, 46.992604 ], [ 11.564477, 46.992537 ], [ 11.564292, 46.992408 ], [ 11.56381, 46.992153 ], [ 11.563578, 46.991978 ], [ 11.563112, 46.991701 ], [ 11.562822, 46.991482 ], [ 11.56215, 46.991043 ], [ 11.561859, 46.990856 ], [ 11.561852, 46.990855 ], [ 11.561667, 46.990847 ], [ 11.561035, 46.990636 ], [ 11.560702, 46.99054 ], [ 11.560478, 46.990432 ], [ 11.560153, 46.990367 ], [ 11.559829, 46.99037 ], [ 11.559502, 46.990373 ], [ 11.558716, 46.990386 ], [ 11.558182, 46.99052 ], [ 11.557522, 46.990611 ], [ 11.557395, 46.990632 ], [ 11.557246, 46.990657 ], [ 11.556785, 46.990726 ], [ 11.556535, 46.990741 ], [ 11.556027, 46.99064 ], [ 11.555518, 46.990557 ], [ 11.555288, 46.990529 ], [ 11.554661, 46.990454 ], [ 11.554061, 46.990319 ], [ 11.55406, 46.990319 ], [ 11.553668, 46.990265 ], [ 11.553037, 46.990133 ], [ 11.553028, 46.990131 ], [ 11.552536, 46.99002 ], [ 11.552069, 46.989918 ], [ 11.552066, 46.989918 ], [ 11.551527, 46.989836 ], [ 11.551211, 46.989708 ], [ 11.550958, 46.989601 ], [ 11.550604, 46.989451 ], [ 11.550492, 46.989421 ], [ 11.550296, 46.989368 ], [ 11.550073, 46.989254 ], [ 11.549814, 46.989122 ], [ 11.549224, 46.988807 ], [ 11.549071, 46.988745 ], [ 11.548868, 46.988662 ], [ 11.548216, 46.988365 ], [ 11.548153, 46.988336 ], [ 11.547578, 46.988128 ], [ 11.547456, 46.988058 ], [ 11.54733, 46.987985 ], [ 11.546958, 46.987768 ], [ 11.546922, 46.987747 ], [ 11.546266, 46.987411 ], [ 11.545874, 46.987293 ], [ 11.545749, 46.987255 ], [ 11.54515, 46.987071 ], [ 11.54456, 46.986859 ], [ 11.544269, 46.986758 ], [ 11.543628, 46.986529 ], [ 11.543297, 46.986425 ], [ 11.543253, 46.986411 ], [ 11.543246, 46.98641 ], [ 11.542686, 46.986307 ], [ 11.542295, 46.986149 ], [ 11.542221, 46.986119 ], [ 11.542494, 46.985393 ], [ 11.542586, 46.985211 ], [ 11.542587, 46.985209 ], [ 11.542588, 46.985206 ], [ 11.542548, 46.985032 ], [ 11.542523, 46.984996 ], [ 11.542375, 46.984784 ], [ 11.542193, 46.984558 ], [ 11.541978, 46.984452 ], [ 11.54182, 46.984373 ], [ 11.541469, 46.984201 ], [ 11.540771, 46.984104 ], [ 11.540044, 46.984066 ], [ 11.539937, 46.984071 ], [ 11.539719, 46.984082 ], [ 11.539094, 46.984092 ], [ 11.538691, 46.984123 ], [ 11.538689, 46.984123 ], [ 11.538116, 46.984109 ], [ 11.538133, 46.983928 ], [ 11.53793, 46.983533 ], [ 11.537838, 46.9834 ], [ 11.537801, 46.982896 ], [ 11.537724, 46.982448 ], [ 11.537788, 46.982127 ], [ 11.537837, 46.981717 ], [ 11.53791, 46.981522 ], [ 11.537842, 46.981078 ], [ 11.537734, 46.980864 ], [ 11.537471, 46.980303 ], [ 11.537285, 46.979844 ], [ 11.53716, 46.979761 ], [ 11.536725, 46.97946 ], [ 11.536582, 46.979315 ], [ 11.536045, 46.978985 ] ] ] } }
]
}
